TRANSPORTER-16 OBJECT Q
1 68430U 26067Q   26110.85662212  .00005539  00000+0  27353-3 0  9998
2 68430  97.4469  70.1772 0002161 104.5895 255.5579 15.18273973  3241
DISCO-2
1 68431U 26067R   26110.85761331  .00004878  00000+0  24177-3 0  9997
2 68431  97.4569  70.2023 0002706 145.0119 215.1293 15.18209162  3241
TRANSPORTER-16 OBJECT S
1 68432U 26067S   26110.86073270  .00004559  00000+0  22784-3 0  9995
2 68432  97.4523  70.1875 0001762 168.2524 191.8751 15.17948570  3245
T.MICROSAT-2
1 68433U 26067T   26110.81014713  .00004035  00000+0  20853-3 0  9992
2 68433  97.4538  70.1051 0003822 257.7956 102.2849 15.16840127  3231
TRANSPORTER-16 OBJECT U
1 68434U 26067U   26110.85691547  .00003314  00000+0  16543-3 0  9993
2 68434  97.4546  70.1970 0002682 128.2951 231.8524 15.18190151  3248
ION SCV-019 (ASTOUNDIN*)
1 68435U 26067V   26110.86446634  .00002433  00000+0  12425-3 0  9996
2 68435  97.4514  70.1798 0001085 204.4326 155.6856 15.17634746  3244
HAWK-14B
1 68436U 26067W   26111.06342942  .00003004  00000+0  15269-3 0  9991
2 68436  97.4512  70.3725 0001098 205.4667 154.6512 15.17623760  3273
TRANSPORTER-16 OBJECT X
1 68437U 26067X   26110.72909174  .00009812  00000+0  48458-3 0  9999
2 68437  97.4476  70.0411 0001137 176.3453 183.7790 15.18073408  3220
TRANSPORTER-16 OBJECT Y
1 68438U 26067Y   26110.86093676  .00013669  00000+0  67214-3 0  9992
2 68438  97.4493  70.1768 0001461 197.2577 162.8607 15.18141060  3242
TRANSPORTER-16 OBJECT Z
1 68439U 26067Z   26110.86345685  .00011865  00000+0  58775-3 0  9991
2 68439  97.4488  70.1724 0000508 198.4117 161.7099 15.17917806  3244
TRANSPORTER-16 OBJECT AA
1 68440U 26067AA  26110.86257352  .00016221  00000+0  79861-3 0  9996
2 68440  97.4487  70.1730 0000625 194.6185 165.5031 15.18058112  3240
HAWK-14C
1 68441U 26067AB  26110.86603266  .00003003  00000+0  15200-3 0  9997
2 68441  97.4456  70.1575 0000794 290.8422  69.2727 15.17769065  3241
TRANSPORTER-16 OBJECT AC
1 68442U 26067AC  26110.80593169  .00004371  00000+0  22364-3 0  9990
2 68442  97.4506  70.1021 0002470 268.0716  92.0235 15.17151470  3232
TRANSPORTER-16 OBJECT AD
1 68443U 26067AD  26110.67485029  .00003831  00000+0  19681-3 0  9999
2 68443  97.4514  69.9737 0002685 273.5042  86.5885 15.17080112  3214
TRANSPORTER-16 OBJECT AE
1 68444U 26067AE  26110.85733610  .00004676  00000+0  23200-3 0  9992
2 68444  97.4539  70.1948 0002411 132.5413 227.6025 15.18194227  3244
TRANSPORTER-16 OBJECT AF
1 68445U 26067AF  26110.80882603  .00003301  00000+0  17082-3 0  9990
2 68445  97.4484  70.0923 0003199 282.3867  77.7009 15.16920525  3238
